{
  "links" : {
    "next" : "https://api.nasa.gov/neo/rest/v1/feed?start_date=1995-08-23&end_date=1995-08-23&detailed=true&api_key=t0TVs3DtDT2H8Oy2Zy8m2eVrNsAVKAexjcZXUckd",
    "prev" : "https://api.nasa.gov/neo/rest/v1/feed?start_date=1995-08-21&end_date=1995-08-21&detailed=true&api_key=t0TVs3DtDT2H8Oy2Zy8m2eVrNsAVKAexjcZXUckd",
    "self" : "https://api.nasa.gov/neo/rest/v1/feed?start_date=1995-08-22&end_date=1995-08-22&detailed=true&api_key=t0TVs3DtDT2H8Oy2Zy8m2eVrNsAVKAexjcZXUckd"
  },
  "element_count" : 4,
  "near_earth_objects" : {
    "1995-08-22" : [ {
      "links" : {
        "self" : "https://api.nasa.gov/neo/rest/v1/neo/2099799?api_key=t0TVs3DtDT2H8Oy2Zy8m2eVrNsAVKAexjcZXUckd"
      },
      "neo_reference_id" : "2099799",
      "name" : "99799 (2002 LJ3)",
      "nasa_jpl_url" : "http://ssd.jpl.nasa.gov/sbdb.cgi?sstr=2099799",
      "absolute_magnitude_h" : 18.3,
      "estimated_diameter" : {
        "kilometers" : {
          "estimated_diameter_min" : 0.5815070396,
          "estimated_diameter_max" : 1.30028927
        },
        "meters" : {
          "estimated_diameter_min" : 581.5070396458,
          "estimated_diameter_max" : 1300.2892700427
        },
        "miles" : {
          "estimated_diameter_min" : 0.3613316107,
          "estimated_diameter_max" : 0.807962044
        },
        "feet" : {
          "estimated_diameter_min" : 1907.8315559515,
          "estimated_diameter_max" : 4266.0410487267
        }
      },
      "is_potentially_hazardous_asteroid" : false,
      "close_approach_data" : [ {
        "close_approach_date" : "1995-08-22",
        "epoch_date_close_approach" : 809074800000,
        "relative_velocity" : {
          "kilometers_per_second" : "3.6316313291",
          "kilometers_per_hour" : "13073.8727848083",
          "miles_per_hour" : "8123.5961200938"
        },
        "miss_distance" : {
          "astronomical" : "0.2472571042",
          "lunar" : "96.183013916",
          "kilometers" : "36989136",
          "miles" : "22983984"
        },
        "orbiting_body" : "Earth"
      } ],
      "orbital_data" : {
        "orbit_id" : "101",
        "orbit_determination_date" : "2017-04-06 09:28:13",
        "orbit_uncertainty" : "0",
        "minimum_orbit_intersection" : ".120423",
        "jupiter_tisserand_invariant" : "4.570",
        "epoch_osculation" : "2458000.5",
        "eccentricity" : ".275645195703379",
        "semi_major_axis" : "1.461599740800429",
        "inclination" : "7.559173999677165",
        "ascending_node_longitude" : "122.4573310894536",
        "orbital_period" : "645.4180588904653",
        "perihelion_distance" : "1.058716794207486",
        "perihelion_argument" : "249.7394136036384",
        "aphelion_distance" : "1.864482687393371",
        "perihelion_time" : "2457753.756279394774",
        "mean_anomaly" : "137.6282212657402",
        "mean_motion" : ".5577780092160328",
        "equinox" : "J2000"
      }
    }, {
      "links" : {
        "self" : "https://api.nasa.gov/neo/rest/v1/neo/2267759?api_key=t0TVs3DtDT2H8Oy2Zy8m2eVrNsAVKAexjcZXUckd"
      },
      "neo_reference_id" : "2267759",
      "name" : "267759 (2003 MC7)",
      "nasa_jpl_url" : "http://ssd.jpl.nasa.gov/sbdb.cgi?sstr=2267759",
      "absolute_magnitude_h" : 18.8,
      "estimated_diameter" : {
        "kilometers" : {
          "estimated_diameter_min" : 0.4619074603,
          "estimated_diameter_max" : 1.0328564805
        },
        "meters" : {
          "estimated_diameter_min" : 461.9074602816,
          "estimated_diameter_max" : 1032.8564805039
        },
        "miles" : {
          "estimated_diameter_min" : 0.2870159005,
          "estimated_diameter_max" : 0.6417870641
        },
        "feet" : {
          "estimated_diameter_min" : 1515.4444719902,
          "estimated_diameter_max" : 3388.6368554964
        }
      },
      "is_potentially_hazardous_asteroid" : false,
      "close_approach_data" : [ {
        "close_approach_date" : "1995-08-22",
        "epoch_date_close_approach" : 809074800000,
        "relative_velocity" : {
          "kilometers_per_second" : "10.6702066978",
          "kilometers_per_hour" : "38412.7441120026",
          "miles_per_hour" : "23868.1853622607"
        },
        "miss_distance" : {
          "astronomical" : "0.4722746294",
          "lunar" : "183.7148284912",
          "kilometers" : "70651280",
          "miles" : "43900668"
        },
        "orbiting_body" : "Earth"
      } ],
      "orbital_data" : {
        "orbit_id" : "78",
        "orbit_determination_date" : "2017-04-06 09:24:35",
        "orbit_uncertainty" : "0",
        "minimum_orbit_intersection" : ".236062",
        "jupiter_tisserand_invariant" : "4.729",
        "epoch_osculation" : "2458000.5",
        "eccentricity" : ".1843426617058004",
        "semi_major_axis" : "1.373675245828435",
        "inclination" : "21.21089365186563",
        "ascending_node_longitude" : "137.0475226872611",
        "orbital_period" : "588.0639207296055",
        "perihelion_distance" : "1.120448294693052",
        "perihelion_argument" : "101.1889164194012",
        "aphelion_distance" : "1.626902196963819",
        "perihelion_time" : "2458050.991037192448",
        "mean_anomaly" : "329.0904802207054",
        "mean_motion" : ".6121783488321326",
        "equinox" : "J2000"
      }
    }, {
      "links" : {
        "self" : "https://api.nasa.gov/neo/rest/v1/neo/3645649?api_key=t0TVs3DtDT2H8Oy2Zy8m2eVrNsAVKAexjcZXUckd"
      },
      "neo_reference_id" : "3645649",
      "name" : "(2013 PY38)",
      "nasa_jpl_url" : "http://ssd.jpl.nasa.gov/sbdb.cgi?sstr=3645649",
      "absolute_magnitude_h" : 24.7,
      "estimated_diameter" : {
        "kilometers" : {
          "estimated_diameter_min" : 0.0305179233,
          "estimated_diameter_max" : 0.0682401509
        },
        "meters" : {
          "estimated_diameter_min" : 30.5179232594,
          "estimated_diameter_max" : 68.2401509401
        },
        "miles" : {
          "estimated_diameter_min" : 0.0189629525,
          "estimated_diameter_max" : 0.0424024508
        },
        "feet" : {
          "estimated_diameter_min" : 100.1244233463,
          "estimated_diameter_max" : 223.8850168104
        }
      },
      "is_potentially_hazardous_asteroid" : false,
      "close_approach_data" : [ {
        "close_approach_date" : "1995-08-22",
        "epoch_date_close_approach" : 809074800000,
        "relative_velocity" : {
          "kilometers_per_second" : "19.6482727113",
          "kilometers_per_hour" : "70733.781760617",
          "miles_per_hour" : "43951.2212278678"
        },
        "miss_distance" : {
          "astronomical" : "0.471608977",
          "lunar" : "183.4558868408",
          "kilometers" : "70551696",
          "miles" : "43838792"
        },
        "orbiting_body" : "Earth"
      } ],
      "orbital_data" : {
        "orbit_id" : "13",
        "orbit_determination_date" : "2017-04-06 08:45:08",
        "orbit_uncertainty" : "3",
        "minimum_orbit_intersection" : ".0285671",
        "jupiter_tisserand_invariant" : "5.865",
        "epoch_osculation" : "2458000.5",
        "eccentricity" : ".2030510455908618",
        "semi_major_axis" : "1.042607694139675",
        "inclination" : "4.22223501558565",
        "ascending_node_longitude" : "146.24487474079",
        "orbital_period" : "388.8479513605899",
        "perihelion_distance" : ".8309051117035368",
        "perihelion_argument" : "296.9358099718218",
        "aphelion_distance" : "1.254310276575814",
        "perihelion_time" : "2458180.935898219437",
        "mean_anomaly" : "192.950326389245",
        "mean_motion" : ".9258117440000645",
        "equinox" : "J2000"
      }
    }, {
      "links" : {
        "self" : "https://api.nasa.gov/neo/rest/v1/neo/3761271?api_key=t0TVs3DtDT2H8Oy2Zy8m2eVrNsAVKAexjcZXUckd"
      },
      "neo_reference_id" : "3761271",
      "name" : "(2016 US4)",
      "nasa_jpl_url" : "http://ssd.jpl.nasa.gov/sbdb.cgi?sstr=3761271",
      "absolute_magnitude_h" : 24.4,
      "estimated_diameter" : {
        "kilometers" : {
          "estimated_diameter_min" : 0.0350392641,
          "estimated_diameter_max" : 0.0783501764
        },
        "meters" : {
          "estimated_diameter_min" : 35.0392641108,
          "estimated_diameter_max" : 78.3501764334
        },
        "miles" : {
          "estimated_diameter_min" : 0.0217723826,
          "estimated_diameter_max" : 0.0486845275
        },
        "feet" : {
          "estimated_diameter_min" : 114.9582192654,
          "estimated_diameter_max" : 257.0543928497
        }
      },
      "is_potentially_hazardous_asteroid" : false,
      "close_approach_data" : [ {
        "close_approach_date" : "1995-08-22",
        "epoch_date_close_approach" : 809074800000,
        "relative_velocity" : {
          "kilometers_per_second" : "15.8283192329",
          "kilometers_per_hour" : "56981.9492382622",
          "miles_per_hour" : "35406.3672919635"
        },
        "miss_distance" : {
          "astronomical" : "0.334093393",
          "lunar" : "129.9623260498",
          "kilometers" : "49979660",
          "miles" : "31055922"
        },
        "orbiting_body" : "Earth"
      } ],
      "orbital_data" : {
        "orbit_id" : "3",
        "orbit_determination_date" : "2017-04-06 08:22:56",
        "orbit_uncertainty" : "6",
        "minimum_orbit_intersection" : ".00908397",
        "jupiter_tisserand_invariant" : "7.176",
        "epoch_osculation" : "2458000.5",
        "eccentricity" : ".3623412818111571",
        "semi_major_axis" : ".8045111682670718",
        "inclination" : "14.95651571067213",
        "ascending_node_longitude" : "206.1288496349375",
        "orbital_period" : "263.5703437193372",
        "perihelion_distance" : ".5130035603257895",
        "perihelion_argument" : "327.946014101613",
        "aphelion_distance" : "1.096018776208354",
        "perihelion_time" : "2458032.740076401390",
        "mean_anomaly" : "315.9645924472466",
        "mean_motion" : "1.3658592803724",
        "equinox" : "J2000"
      }
    } ]
  }
}